NORAD_CAT_ID,OBJECT_NAME,OBJECT_TYPE,EPOCH,MEAN_MOTION,ECCENTRICITY,INCLINATION,RA_OF_ASC_NODE,ARG_OF_PERICENTER,MEAN_ANOMALY,BSTAR,MEAN_MOTION_DOT,MEAN_MOTION_DDOT,TLE_LINE0,TLE_LINE1,TLE_LINE2,SEMIMAJOR_AXIS,PERIOD,APOGEE,PERIGEE,DECAYED
55273.0,STARLINK-5291,PAYLOAD,2024-03-26 22:45:09,14.99141688,0.0003215,70.0009,41.5513,267.5742,92.5049,0.00021143,2.484e-05,0.0,0 STARLINK-5291,1 55273U 23010E   24086.94803211  .00002484  00000-0  21143-3 0  9998,2 55273  70.0009  41.5513 0003215 267.5742  92.5049 14.99141688 66027,6947.684,96.055,571.783,567.315,0.0
55273.0,STARLINK-5291,PAYLOAD,2024-03-27 05:09:29,14.99155346,0.0003012,70.0011,40.8774,267.4145,92.667,0.00018755,2.193e-05,0.0,0 STARLINK-5291,1 55273U 23010E   24087.21492077  .00002193  00000-0  18755-3 0  9995,2 55273  70.0011  40.8774 0003012 267.4145  92.6670 14.99155346 65747,6947.642,96.054,571.599,567.414,0.0
55273.0,STARLINK-5291,PAYLOAD,2024-03-27 14:45:58,14.99159762,0.000305,70.0013,39.8662,266.385,93.6961,0.00017494,2.04e-05,0.0,0 STARLINK-5291,1 55273U 23010E   24087.61525905  .00002040  00000-0  17494-3 0  9996,2 55273  70.0013  39.8662 0003050 266.3850  93.6961 14.99159762 66129,6947.628,96.054,571.612,567.374,0.0
55273.0,STARLINK-5291,PAYLOAD,2024-03-27 21:10:18,14.99156444,0.0003012,70.0028,39.192,269.5274,90.5541,0.00061715,7.437e-05,0.0,0 STARLINK-5291,1 55273U 23010E   24087.88216003  .00007437  00000-0  61715-3 0  9991,2 55273  70.0028  39.1920 0003012 269.5274  90.5541 14.99156444 65840,6947.638,96.054,571.596,567.411,0.0
55273.0,STARLINK-5291,PAYLOAD,2024-03-27 22:46:23,14.99158491,0.0003026,70.0027,39.0236,269.2657,90.8156,0.00066495,8.022e-05,0.0,0 STARLINK-5291,1 55273U 23010E   24087.94888360  .00008022  00000-0  66495-3 0  9990,2 55273  70.0027  39.0236 0003026 269.2657  90.8156 14.99158491 66171,6947.632,96.054,571.599,567.395,0.0
55273.0,STARLINK-5291,PAYLOAD,2024-03-28 06:46:47,14.99171633,0.0003056,70.0037,38.1823,271.062,89.0189,0.00056875,6.849e-05,0.0,0 STARLINK-5291,1 55273U 23010E   24088.28249460  .00006849  00000-0  56875-3 0  9996,2 55273  70.0037  38.1823 0003056 271.0620  89.0189 14.99171633 66223,6947.591,96.053,571.58,567.333,0.0
55273.0,STARLINK-5291,PAYLOAD,2024-03-28 21:11:32,14.99146273,0.0002985,70.0037,36.6661,271.0738,89.008,-0.00027212,-3.408e-05,0.0,0 STARLINK-5291,1 55273U 23010E   24088.88301361 -.00003408  00000-0 -27212-3 0  9994,2 55273  70.0037  36.6661 0002985 271.0738  89.0080 14.99146273 65991,6947.67,96.055,571.609,567.461,0.0
55273.0,STARLINK-5291,PAYLOAD,2024-03-28 22:47:37,14.99143427,0.0003142,70.0033,36.4968,271.5961,88.4839,-0.00032124,-4.006e-05,0.0,0 STARLINK-5291,1 55273U 23010E   24088.94973815 -.00004006  00000-0 -32124-3 0  9993,2 55273  70.0033  36.4968 0003142 271.5961  88.4839 14.99143427 66325,6947.679,96.055,571.727,567.361,0.0
55273.0,STARLINK-5291,PAYLOAD,2024-03-29 13:12:22,14.99140812,0.0002954,70.004,34.9817,268.9365,91.1456,-0.00014288,-1.834e-05,0.0,0 STARLINK-5291,1 55273U 23010E   24089.55025715 -.00001834  00000-0 -14288-3 0  9995,2 55273  70.0040  34.9817 0002954 268.9365  91.1456 14.99140812 66418,6947.687,96.055,571.604,567.499,0.0
55273.0,STARLINK-5291,PAYLOAD,2024-03-29 21:12:47,14.99138077,0.0003082,70.0038,34.1406,265.5684,94.5124,-4.5544e-05,-6.49e-06,0.0,0 STARLINK-5291,1 55273U 23010E   24089.88387874 -.00000649  00000-0 -45544-4 0  9991,2 55273  70.0038  34.1406 0003082 265.5684  94.5124 14.99138077 66140,6947.695,96.055,571.701,567.419,0.0
55273.0,STARLINK-5291,PAYLOAD,2024-03-29 22:48:52,14.99136099,0.0003216,70.0036,33.9724,265.2205,94.8588,-6.2569e-05,-8.56e-06,0.0,0 STARLINK-5291,1 55273U 23010E   24089.95060374 -.00000856  00000-0 -62569-4 0  9998,2 55273  70.0036  33.9724 0003216 265.2205  94.8588 14.99136099 66478,6947.701,96.055,571.801,567.332,0.0
55273.0,STARLINK-5291,PAYLOAD,2024-03-30 13:13:36,14.9913636,0.0002912,70.0037,32.4566,265.5728,94.5099,0.00014162,1.632e-05,0.0,0 STARLINK-5291,1 55273U 23010E   24090.55112166  .00001632  00000-0  14162-3 0  9999,2 55273  70.0037  32.4566 0002912 265.5728  94.5099 14.99136360 66567,6947.7,96.055,571.589,567.542,0.0
55273.0,STARLINK-5291,PAYLOAD,2024-03-30 21:14:02,14.99138433,0.0002936,70.0038,31.6146,264.4264,95.656,0.00040234,4.812e-05,0.0,0 STARLINK-5291,1 55273U 23010E   24090.88474549  .00004812  00000-0  40234-3 0  9993,2 55273  70.0038  31.6146 0002936 264.4264  95.6560 14.99138433 66290,6947.694,96.055,571.599,567.519,0.0
55273.0,STARLINK-5291,PAYLOAD,2024-03-30 22:50:06,14.99138918,0.0002949,70.0037,31.4462,264.3288,95.7535,0.00040339,4.825e-05,0.0,0 STARLINK-5291,1 55273U 23010E   24090.95146963  .00004825  00000-0  40339-3 0  9997,2 55273  70.0037  31.4462 0002949 264.3288  95.7535 14.99138918 66625,6947.693,96.055,571.606,567.509,0.0
55273.0,STARLINK-5291,PAYLOAD,2024-03-31 13:14:51,14.99144381,0.0002973,70.0033,29.9302,266.9531,93.1288,0.00042545,5.095e-05,0.0,0 STARLINK-5291,1 55273U 23010E   24091.55198330  .00005095  00000-0  42545-3 0  9990,2 55273  70.0033  29.9302 0002973 266.9531  93.1288 14.99144381 66710,6947.676,96.055,571.606,567.475,0.0
55273.0,STARLINK-5291,PAYLOAD,2024-03-31 21:15:15,14.99146415,0.0002956,70.0032,29.0879,266.4608,93.6213,0.00033326,3.97e-05,0.0,0 STARLINK-5291,1 55273U 23010E   24091.88560146  .00003970  00000-0  33326-3 0  9991,2 55273  70.0032  29.0879 0002956 266.4608  93.6213 14.99146415 66443,6947.669,96.055,571.588,567.481,0.0
55273.0,STARLINK-5291,PAYLOAD,2024-04-01 13:16:05,14.99148918,0.00029,70.0035,27.402,270.1591,89.9236,0.00024385,2.88e-05,0.0,0 STARLINK-5291,1 55273U 23010E   24092.55283767  .00002880  00000-0  24385-3 0  9991,2 55273  70.0035  27.4020 0002900 270.1591  89.9236 14.99148918 66867,6947.662,96.055,571.541,567.512,0.0
55273.0,STARLINK-5291,PAYLOAD,2024-04-02 05:16:55,14.99139023,0.0002782,70.0028,25.7172,267.2153,92.8688,2.4368e-05,2.03e-06,0.0,0 STARLINK-5291,1 55273U 23010E   24093.22008160  .00000203  00000-0  24368-4 0  9997,2 55273  70.0028  25.7172 0002782 267.2153  92.8688 14.99139023 66644,6947.692,96.055,571.49,567.624,0.0
55273.0,STARLINK-5291,PAYLOAD,2024-04-02 13:17:19,14.99138644,0.0002781,70.0028,24.8755,267.4847,92.5994,-3.9537e-05,-5.75e-06,0.0,0 STARLINK-5291,1 55273U 23010E   24093.55370168 -.00000575  00000-0 -39537-4 0  9991,2 55273  70.0028  24.8755 0002781 267.4847  92.5994 14.99138644 67019,6947.693,96.055,571.491,567.626,0.0
55273.0,STARLINK-5291,PAYLOAD,2024-04-02 21:17:44,14.99137373,0.0002898,70.0018,24.0334,268.8779,91.2049,2.4165e-05,2.01e-06,0.0,0 STARLINK-5291,1 55273U 23010E   24093.88732487  .00000201  00000-0  24165-4 0  9998,2 55273  70.0018  24.0334 0002898 268.8779  91.2049 14.99137373 67061,6947.697,96.055,571.576,567.549,0.0
55273.0,STARLINK-5291,PAYLOAD,2024-04-03 05:18:09,14.99140448,0.0002814,70.0017,23.191,266.594,93.4898,1.8961e-05,1.37e-06,0.0,0 STARLINK-5291,1 55273U 23010E   24094.22094247  .00000137  00000-0  18961-4 0  9997,2 55273  70.0017  23.1910 0002814 266.5940  93.4898 14.99140448 66795,6947.688,96.055,571.508,567.598,0.0
55273.0,STARLINK-5291,PAYLOAD,2024-04-03 19:42:53,14.99137583,0.0002763,70.0016,21.6751,270.1603,89.924,0.00011715,1.334e-05,0.0,0 STARLINK-5291,1 55273U 23010E   24094.82145784  .00001334  00000-0  11715-3 0  9995,2 55273  70.0016  21.6751 0002763 270.1603  89.9240 14.99137583 67204,6947.697,96.055,571.481,567.642,0.0
55273.0,STARLINK-5291,PAYLOAD,2024-04-04 05:19:23,14.9913882,0.0002811,70.0015,20.6649,269.7841,90.2997,0.00011145,1.265e-05,0.0,0 STARLINK-5291,1 55273U 23010E   24095.22180169  .00001265  00000-0  11145-3 0  9996,2 55273  70.0015  20.6649 0002811 269.7841  90.2997 14.99138820 66949,6947.693,96.055,571.511,567.605,0.0
55273.0,STARLINK-5291,PAYLOAD,2024-04-04 11:43:43,14.99138562,0.0002804,70.0015,19.9912,269.8589,90.2249,8.3388e-05,9.23e-06,0.0,0 STARLINK-5291,1 55273U 23010E   24095.48869837  .00000923  00000-0  83388-4 0  9999,2 55273  70.0015  19.9912 0002804 269.8589  90.2249 14.99138562 67309,6947.694,96.055,571.507,567.61,0.0
55273.0,STARLINK-5291,PAYLOAD,2024-04-04 21:20:13,14.99135528,0.0002803,70.0015,18.9808,268.6083,91.4755,5.5303e-05,5.8e-06,0.0,0 STARLINK-5291,1 55273U 23010E   24095.88904566  .00000580  00000-0  55303-4 0  9997,2 55273  70.0015  18.9808 0002803 268.6083  91.4755 14.99135528 67367,6947.703,96.055,571.515,567.621,0.0
55273.0,STARLINK-5291,PAYLOAD,2024-04-05 11:44:57,14.99140731,0.0002738,70.0016,17.4655,266.1746,93.9101,7.032e-05,7.63e-06,0.0,0 STARLINK-5291,1 55273U 23010E   24096.48955803  .00000763  00000-0  70320-4 0  9993,2 55273  70.0016  17.4655 0002738 266.1746  93.9101 14.99140731 67137,6947.687,96.055,571.454,567.65,0.0
55273.0,STARLINK-5291,PAYLOAD,2024-04-05 21:21:27,14.99144914,0.0002795,70.0014,16.4547,266.0992,93.9848,0.00010757,1.217e-05,0.0,0 STARLINK-5291,1 55273U 23010E   24096.88989730  .00001217  00000-0  10757-3 0  9995,2 55273  70.0014  16.4547 0002795 266.0992  93.9848 14.99144914 67516,6947.674,96.055,571.481,567.597,0.0
55273.0,STARLINK-5291,PAYLOAD,2024-04-06 03:45:46,14.99147729,0.0002777,70.0015,15.781,265.6061,94.4782,0.0001356,1.559e-05,0.0,0 STARLINK-5291,1 55273U 23010E   24097.15679025  .00001559  00000-0  13560-3 0  9993,2 55273  70.0015  15.7810 0002777 265.6061  94.4782 14.99147729 67233,6947.665,96.055,571.46,567.601,0.0
55273.0,STARLINK-5291,PAYLOAD,2024-04-06 11:46:11,14.99143391,0.0002792,70.0014,14.9383,271.2836,88.8003,7.6163e-05,8.35e-06,0.0,0 STARLINK-5291,1 55273U 23010E   24097.49041355  .00000835  00000-0  76163-4 0  9994,2 55273  70.0014  14.9383 0002792 271.2836  88.8003 14.99143391 67603,6947.679,96.055,571.483,567.604,0.0
55273.0,STARLINK-5291,PAYLOAD,2024-04-06 18:10:31,14.99140469,0.0002514,70.0019,14.2649,271.3917,88.6955,8.3185e-05,9.2e-06,0.0,0 STARLINK-5291,1 55273U 23010E   24097.75731187  .00000920  00000-0  83185-4 0  9999,2 55273  70.0019  14.2649 0002514 271.3917  88.6955 14.99140469 67325,6947.688,96.055,571.299,567.806,0.0
